ONEWEB-0334             
1 49200U 21083Q   25242.00918082  .00000008  00000+0 -12366-4 0  9992
2 49200  87.9286 332.5044 0001386  65.9221 294.2057 13.20770452198357
ONEWEB-0335             
1 49201U 21083R   25241.90815283  .00000237  00000+0  61313-3 0  9998
2 49201  87.9004  18.1173 0001915  99.2035 260.9311 13.13469373192689
ONEWEB-0336             
1 49202U 21083S   25241.87936712 -.00000199  00000+0 -57868-3 0  9995
2 49202  87.9000  18.1169 0001828  94.6935 265.4403 13.13470206192670
ONEWEB-0337             
1 49203U 21083T   25242.11790103 -.00000156  00000+0 -46273-3 0  9997
2 49203  87.9013  18.0718 0001780 105.0561 255.0765 13.13471683192703
ONEWEB-0338             
1 49204U 21083U   25241.98393801  .00000218  00000+0  50331-3 0  9993
2 49204  87.9299 332.5067 0001626  92.7932 267.3387 13.20773039198377
ONEWEB-0339             
1 49205U 21083V   25242.12652537  .00000265  00000+0  68939-3 0  9990
2 49205  87.9011  18.0550 0001614  99.6657 260.4654 13.13471749192684
ONEWEB-0340             
1 49206U 21083W   25241.92011288 -.00000023  00000+0 -90849-4 0  9990
2 49206  87.9164  33.2913 0001821  95.7590 264.3750 13.18686946191589
ONEWEB-0341             
1 49207U 21083X   25242.15434098 -.00000027  00000+0 -10166-3 0  9992
2 49207  87.9169  33.2568 0001627 113.3495 246.7809 13.18685512191639
ONEWEB-0342             
1 49208U 21083Y   25241.99023801  .00000080  00000+0  16545-3 0  9994
2 49208  87.9286 332.4763 0001781  96.9782 263.1554 13.20769779198343
ONEWEB-0343             
1 49209U 21083Z   25242.15022106  .00000053  00000+0  10096-3 0  9996
2 49209  87.9165  33.2435 0001286 108.1573 251.9699 13.18685168191687
ONEWEB-0344             
1 49210U 21083AA  25242.12143679  .00000151  00000+0  37802-3 0  9997
2 49210  87.9005  18.0959 0001698 112.3989 247.7320 13.13470433192686
ONEWEB-0345             
1 49211U 21083AB  25241.88445220 -.00000126  00000+0 -38124-3 0  9999
2 49211  87.9010  18.0956 0001705 114.1628 245.9679 13.13470281192665
ONEWEB-0346             
1 49212U 21083AC  25242.15929625  .00000067  00000+0  13700-3 0  9992
2 49212  87.9167  33.2641 0002378  96.5129 263.6274 13.18685215191628
ONEWEB-0348             
1 49213U 21083AD  25241.98077741  .00000056  00000+0  10537-3 0  9999
2 49213  87.9286 332.4901 0002268 113.0959 247.0414 13.20771377198377
ONEWEB-0350             
1 49214U 21083AE  25242.12228703  .00000250  00000+0  65078-3 0  9999
2 49214  87.9016  18.0404 0001730 108.9269 251.2048 13.13471386192726
ONEWEB-0351             
1 49215U 21083AF  25241.74705841 -.00000048  00000+0 -14961-3 0  9992
2 49215  87.9301 332.5215 0001002  94.6177 265.5071 13.20770757198305
