[{"OBJECT_NAME":"ONEWEB-0334","OBJECT_ID":"2021-083Q","EPOCH":"2025-08-30T00:13:13.222848","MEAN_MOTION":13.20770452,"ECCENTRICITY":0.00013864,"INCLINATION":87.9286,"RA_OF_ASC_NODE":332.5044,"ARG_OF_PERICENTER":65.9221,"MEAN_ANOMALY":294.2057,"EPHEMERIS_TYPE":0,"CLASSIFICATION_TYPE":"U","NORAD_CAT_ID":49200,"ELEMENT_SET_NO":999,"REV_AT_EPOCH":19835,"BSTAR":-1.2365901e-5,"MEAN_MOTION_DOT":8.0e-8,"MEAN_MOTION_DDOT":0},{"OBJECT_NAME":"ONEWEB-0335","OBJECT_ID":"2021-083R","EPOCH":"2025-08-29T21:47:44.404512","MEAN_MOTION":13.13469373,"ECCENTRICITY":0.00019152,"INCLINATION":87.9004,"RA_OF_ASC_NODE":18.1173,"ARG_OF_PERICENTER":99.2035,"MEAN_ANOMALY":260.9311,"EPHEMERIS_TYPE":0,"CLASSIFICATION_TYPE":"U","NORAD_CAT_ID":49201,"ELEMENT_SET_NO":999,"REV_AT_EPOCH":19268,"BSTAR":0.00061313081,"MEAN_MOTION_DOT":2.37e-6,"MEAN_MOTION_DDOT":0},{"OBJECT_NAME":"ONEWEB-0336","OBJECT_ID":"2021-083S","EPOCH":"2025-08-29T21:06:17.319168","MEAN_MOTION":13.13470206,"ECCENTRICITY":0.00018284,"INCLINATION":87.9,"RA_OF_ASC_NODE":18.1169,"ARG_OF_PERICENTER":94.6935,"MEAN_ANOMALY":265.4403,"EPHEMERIS_TYPE":0,"CLASSIFICATION_TYPE":"U","NORAD_CAT_ID":49202,"ELEMENT_SET_NO":999,"REV_AT_EPOCH":19267,"BSTAR":-0.00057867943,"MEAN_MOTION_DOT":-1.99e-6,"MEAN_MOTION_DDOT":0},{"OBJECT_NAME":"ONEWEB-0337","OBJECT_ID":"2021-083T","EPOCH":"2025-08-30T02:49:46.648992","MEAN_MOTION":13.13471683,"ECCENTRICITY":0.00017805,"INCLINATION":87.9013,"RA_OF_ASC_NODE":18.0718,"ARG_OF_PERICENTER":105.0561,"MEAN_ANOMALY":255.0765,"EPHEMERIS_TYPE":0,"CLASSIFICATION_TYPE":"U","NORAD_CAT_ID":49203,"ELEMENT_SET_NO":999,"REV_AT_EPOCH":19270,"BSTAR":-0.00046273157,"MEAN_MOTION_DOT":-1.56e-6,"MEAN_MOTION_DDOT":0},{"OBJECT_NAME":"ONEWEB-0338","OBJECT_ID":"2021-083U","EPOCH":"2025-08-29T23:36:52.244064","MEAN_MOTION":13.20773039,"ECCENTRICITY":0.00016265,"INCLINATION":87.9299,"RA_OF_ASC_NODE":332.5067,"ARG_OF_PERICENTER":92.7932,"MEAN_ANOMALY":267.3387,"EPHEMERIS_TYPE":0,"CLASSIFICATION_TYPE":"U","NORAD_CAT_ID":49204,"ELEMENT_SET_NO":999,"REV_AT_EPOCH":19837,"BSTAR":0.00050330834,"MEAN_MOTION_DOT":2.18e-6,"MEAN_MOTION_DDOT":0},{"OBJECT_NAME":"ONEWEB-0339","OBJECT_ID":"2021-083V","EPOCH":"2025-08-30T03:02:11.791968","MEAN_MOTION":13.13471749,"ECCENTRICITY":0.00016142,"INCLINATION":87.9011,"RA_OF_ASC_NODE":18.055,"ARG_OF_PERICENTER":99.6657,"MEAN_ANOMALY":260.4654,"EPHEMERIS_TYPE":0,"CLASSIFICATION_TYPE":"U","NORAD_CAT_ID":49205,"ELEMENT_SET_NO":999,"REV_AT_EPOCH":19268,"BSTAR":0.00068938843,"MEAN_MOTION_DOT":2.65e-6,"MEAN_MOTION_DDOT":0},{"OBJECT_NAME":"ONEWEB-0340","OBJECT_ID":"2021-083W","EPOCH":"2025-08-29T22:04:57.752832","MEAN_MOTION":13.18686946,"ECCENTRICITY":0.0001821,"INCLINATION":87.9164,"RA_OF_ASC_NODE":33.2913,"ARG_OF_PERICENTER":95.759,"MEAN_ANOMALY":264.375,"EPHEMERIS_TYPE":0,"CLASSIFICATION_TYPE":"U","NORAD_CAT_ID":49206,"ELEMENT_SET_NO":999,"REV_AT_EPOCH":19158,"BSTAR":-9.0849151e-5,"MEAN_MOTION_DOT":-2.3e-7,"MEAN_MOTION_DDOT":0},{"OBJECT_NAME":"ONEWEB-0341","OBJECT_ID":"2021-083X","EPOCH":"2025-08-30T03:42:15.060672","MEAN_MOTION":13.18685512,"ECCENTRICITY":0.00016277,"INCLINATION":87.9169,"RA_OF_ASC_NODE":33.2568,"ARG_OF_PERICENTER":113.3495,"MEAN_ANOMALY":246.7809,"EPHEMERIS_TYPE":0,"CLASSIFICATION_TYPE":"U","NORAD_CAT_ID":49207,"ELEMENT_SET_NO":999,"REV_AT_EPOCH":19163,"BSTAR":-0.00010165769,"MEAN_MOTION_DOT":-2.7e-7,"MEAN_MOTION_DDOT":0},{"OBJECT_NAME":"ONEWEB-0342","OBJECT_ID":"2021-083Y","EPOCH":"2025-08-29T23:45:56.564064","MEAN_MOTION":13.20769779,"ECCENTRICITY":0.00017819,"INCLINATION":87.9286,"RA_OF_ASC_NODE":332.4763,"ARG_OF_PERICENTER":96.9782,"MEAN_ANOMALY":263.1554,"EPHEMERIS_TYPE":0,"CLASSIFICATION_TYPE":"U","NORAD_CAT_ID":49208,"ELEMENT_SET_NO":999,"REV_AT_EPOCH":19834,"BSTAR":0.00016544591,"MEAN_MOTION_DOT":8.0e-7,"MEAN_MOTION_DDOT":0},{"OBJECT_NAME":"ONEWEB-0343","OBJECT_ID":"2021-083Z","EPOCH":"2025-08-30T03:36:19.099584","MEAN_MOTION":13.18685168,"ECCENTRICITY":0.00012869,"INCLINATION":87.9165,"RA_OF_ASC_NODE":33.2435,"ARG_OF_PERICENTER":108.1573,"MEAN_ANOMALY":251.9699,"EPHEMERIS_TYPE":0,"CLASSIFICATION_TYPE":"U","NORAD_CAT_ID":49209,"ELEMENT_SET_NO":999,"REV_AT_EPOCH":19168,"BSTAR":0.00010095854,"MEAN_MOTION_DOT":5.3e-7,"MEAN_MOTION_DDOT":0},{"OBJECT_NAME":"ONEWEB-0344","OBJECT_ID":"2021-083AA","EPOCH":"2025-08-30T02:54:52.138656","MEAN_MOTION":13.13470433,"ECCENTRICITY":0.00016984,"INCLINATION":87.9005,"RA_OF_ASC_NODE":18.0959,"ARG_OF_PERICENTER":112.3989,"MEAN_ANOMALY":247.732,"EPHEMERIS_TYPE":0,"CLASSIFICATION_TYPE":"U","NORAD_CAT_ID":49210,"ELEMENT_SET_NO":999,"REV_AT_EPOCH":19268,"BSTAR":0.00037801806,"MEAN_MOTION_DOT":1.51e-6,"MEAN_MOTION_DDOT":0},{"OBJECT_NAME":"ONEWEB-0345","OBJECT_ID":"2021-083AB","EPOCH":"2025-08-29T21:13:36.670080","MEAN_MOTION":13.13470281,"ECCENTRICITY":0.00017053,"INCLINATION":87.901,"RA_OF_ASC_NODE":18.0956,"ARG_OF_PERICENTER":114.1628,"MEAN_ANOMALY":245.9679,"EPHEMERIS_TYPE":0,"CLASSIFICATION_TYPE":"U","NORAD_CAT_ID":49211,"ELEMENT_SET_NO":999,"REV_AT_EPOCH":19266,"BSTAR":-0.00038124054,"MEAN_MOTION_DOT":-1.26e-6,"MEAN_MOTION_DDOT":0},{"OBJECT_NAME":"ONEWEB-0346","OBJECT_ID":"2021-083AC","EPOCH":"2025-08-30T03:49:23.196000","MEAN_MOTION":13.18685215,"ECCENTRICITY":0.00023787,"INCLINATION":87.9167,"RA_OF_ASC_NODE":33.2641,"ARG_OF_PERICENTER":96.5129,"MEAN_ANOMALY":263.6274,"EPHEMERIS_TYPE":0,"CLASSIFICATION_TYPE":"U","NORAD_CAT_ID":49212,"ELEMENT_SET_NO":999,"REV_AT_EPOCH":19162,"BSTAR":0.00013699972,"MEAN_MOTION_DOT":6.7e-7,"MEAN_MOTION_DDOT":0},{"OBJECT_NAME":"ONEWEB-0348","OBJECT_ID":"2021-083AD","EPOCH":"2025-08-29T23:32:19.168224","MEAN_MOTION":13.20771377,"ECCENTRICITY":0.00022683,"INCLINATION":87.9286,"RA_OF_ASC_NODE":332.4901,"ARG_OF_PERICENTER":113.0959,"MEAN_ANOMALY":247.0414,"EPHEMERIS_TYPE":0,"CLASSIFICATION_TYPE":"U","NORAD_CAT_ID":49213,"ELEMENT_SET_NO":999,"REV_AT_EPOCH":19837,"BSTAR":0.00010536863,"MEAN_MOTION_DOT":5.6e-7,"MEAN_MOTION_DDOT":0},{"OBJECT_NAME":"ONEWEB-0350","OBJECT_ID":"2021-083AE","EPOCH":"2025-08-30T02:56:05.599392","MEAN_MOTION":13.13471386,"ECCENTRICITY":0.00017304,"INCLINATION":87.9016,"RA_OF_ASC_NODE":18.0404,"ARG_OF_PERICENTER":108.9269,"MEAN_ANOMALY":251.2048,"EPHEMERIS_TYPE":0,"CLASSIFICATION_TYPE":"U","NORAD_CAT_ID":49214,"ELEMENT_SET_NO":999,"REV_AT_EPOCH":19272,"BSTAR":0.00065077898,"MEAN_MOTION_DOT":2.5e-6,"MEAN_MOTION_DDOT":0},{"OBJECT_NAME":"ONEWEB-0351","OBJECT_ID":"2021-083AF","EPOCH":"2025-08-29T17:55:45.846624","MEAN_MOTION":13.20770757,"ECCENTRICITY":0.00010025,"INCLINATION":87.9301,"RA_OF_ASC_NODE":332.5215,"ARG_OF_PERICENTER":94.6177,"MEAN_ANOMALY":265.5071,"EPHEMERIS_TYPE":0,"CLASSIFICATION_TYPE":"U","NORAD_CAT_ID":49215,"ELEMENT_SET_NO":999,"REV_AT_EPOCH":19830,"BSTAR":-0.0001496074,"MEAN_MOTION_DOT":-4.8e-7,"MEAN_MOTION_DDOT":0}]
